XRISM                   
1 57800U 23137A   24179.66673652  .00006221  00000+0  46502-3 0  9990
2 57800  31.0037 305.9030 0009601 313.2735  46.7099 15.01336549 44264
